{
    "links": {
        "self": "http://www.neowsapp.com/rest/v1/neo/3393821?api_key=iIulBulltgU6a56xZRHN4H3l9WmuAYTsLGpBGhQ2"
    },
    "id": "3393821",
    "neo_reference_id": "3393821",
    "name": "(2007 VM84)",
    "designation": "2007 VM84",
    "nasa_jpl_url": "http://ssd.jpl.nasa.gov/sbdb.cgi?sstr=3393821",
    "absolute_magnitude_h": 23.3,
    "estimated_diameter": {
        "kilometers": {
            "estimated_diameter_min": 0.058150704,
            "estimated_diameter_max": 0.130028927
        },
        "meters": {
            "estimated_diameter_min": 58.1507039646,
            "estimated_diameter_max": 130.0289270043
        },
        "miles": {
            "estimated_diameter_min": 0.0361331611,
            "estimated_diameter_max": 0.0807962044
        },
        "feet": {
            "estimated_diameter_min": 190.7831555951,
            "estimated_diameter_max": 426.6041048727
        }
    },
    "is_potentially_hazardous_asteroid": false,
    "close_approach_data": [
        {
            "close_approach_date": "2007-11-07",
            "close_approach_date_full": "2007-Nov-07 02:10",
            "epoch_date_close_approach": 1194401400000,
            "relative_velocity": {
                "kilometers_per_second": "13.3346118571",
                "kilometers_per_hour": "48004.6026855632",
                "miles_per_hour": "29828.193263149"
            },
            "miss_distance": {
                "astronomical": "0.0660891032",
                "lunar": "25.7086611448",
                "kilometers": "9886789.068930184",
                "miles": "6143365.8557731792"
            },
            "orbiting_body": "Earth"
        }
    ],
    "orbital_data": {
        "orbit_id": "8",
        "orbit_determination_date": "2017-04-06 09:05:18",
        "first_observation_date": "2007-11-07",
        "last_observation_date": "2007-11-11",
        "data_arc_in_days": 4,
        "observations_used": 16,
        "orbit_uncertainty": "9",
        "minimum_orbit_intersection": ".0623534",
        "jupiter_tisserand_invariant": "4.890",
        "epoch_osculation": "2454414.5",
        "eccentricity": ".1915784347081883",
        "semi_major_axis": "1.301223831392167",
        "inclination": "24.72745842890601",
        "ascending_node_longitude": "44.66482523589163",
        "orbital_period": "542.158710630027",
        "perihelion_distance": "1.051937406569064",
        "perihelion_argument": "7.567721944907908",
        "aphelion_distance": "1.55051025621527",
        "perihelion_time": "2454418.354921204751",
        "mean_anomaly": "357.4402852771697",
        "mean_motion": ".6640122033300071",
        "equinox": "J2000",
        "orbit_class": {
            "orbit_class_type": "AMO",
            "orbit_class_description": "Near-Earth asteroid orbits similar to that of 1221 Amor",
            "orbit_class_range": "1.017 AU < q (perihelion) < 1.3 AU"
        }
    },
    "is_sentry_object": false
}